SSLV R/B                
1 55565U 23019D   23056.35518068  .00029049  00000+0  51428-3 0  9999
2 55565  37.1851  18.1432 0038907 112.6697 247.8185 15.48563086  2341
VTM R/B                 
1 55566U 23019E   23056.33391721  .00018142  00000+0  29400-3 0  9990
2 55566  37.9015  19.9557 0050452 137.6624 222.8061 15.50619520  2349
VTM R/B                 
1 55567U 23019F   23056.34165469  .00434163  00000+0  43504-2 0  9995
2 55567  37.1847  17.0699 0041751 126.9451 233.5149 15.62207507  2350
SS3 R/B                 
1 55568U 23019G   23056.29628558  .00313479  00000+0  36144-2 0  9991
2 55568  37.1924  17.6595 0042634 123.9388 236.5441 15.58930161  2335
STARLINK-5749           
1 55569U 23020A   23055.10459642  .00062552  00000+0  47762-3 0  9991
2 55569  42.9992 284.6016 0002051 255.1852 104.8789 15.71317379  2957
STARLINK-5737           
1 55570U 23020B   23055.67677910  .00025388  00000+0  19663-3 0  9990
2 55570  42.9992 281.1529 0001694 261.5988  98.4688 15.71334308  1971
STARLINK-5739           
1 55571U 23020C   23056.00001157  .00020202  00000+0  15720-3 0  9993
2 55571  42.9990 279.2011 0001919 279.2511 112.7235 15.71343487  2025
STARLINK-5732           
1 55572U 23020D   23055.61279608  .00018550  00000+0  14512-3 0  9999
2 55572  43.0001 281.5329 0002459 245.4697 114.5915 15.71265760  1963
STARLINK-5738           
1 55573U 23020E   23055.61289937  .00057754  00000+0  44064-3 0  9990
2 55573  42.9991 281.5335 0002628 251.5508 108.5074 15.71362368  1965
STARLINK-5747           
1 55574U 23020F   23055.67600752  .00068396  00000+0  51790-3 0  9997
2 55574  42.9999 281.1470 0002141 251.5197 108.5438 15.71484189  1975
STARLINK-5745           
1 55575U 23020G   23055.61268987  .00059634  00000+0  45619-3 0  9990
2 55575  42.9993 281.5308 0002034 260.1684  99.8954 15.71289629  1968
STARLINK-5751           
1 55576U 23020H   23055.67094667  .00068466  00000+0  48128-3 0  9990
2 55576  43.0002 281.1052 0003366 286.7680  73.2819 15.73230150  1977
STARLINK-5752           
1 55577U 23020J   23055.61258067  .00034202  00000+0  26334-3 0  9997
2 55577  42.9991 281.5293 0002034 252.5694 107.4952 15.71340727  1968
STARLINK-5713           
1 55578U 23020K   23055.61216343  .00074056  00000+0  56275-3 0  9997
2 55578  42.9996 281.5277 0002373 248.9550 111.1064 15.71371399  1967
STARLINK-5754           
1 55579U 23020L   23055.61142472  .00051529  00000+0  39353-3 0  9997
2 55579  42.9991 281.5212 0002585 237.6409 122.4208 15.71379400  1961
STARLINK-5757           
1 55580U 23020M   23055.66647626  .00076533  00000+0  51354-3 0  9992
2 55580  42.9998 281.0707 0003715 290.2952  69.7518 15.74270156  1977
STARLINK-5753           
1 55581U 23020N   23055.61225400  .00056352  00000+0  42898-3 0  9990
2 55581  42.9994 281.5288 0002229 269.5340  90.5273 15.71425468  1966
STARLINK-5741           
1 55582U 23020P   23055.66880420  .00079707  00000+0  54789-3 0  9996
2 55582  42.9995 281.0889 0002222 256.9565 103.1055 15.73701802  1973
STARLINK-5742           
1 55583U 23020Q   23055.67541227  .00055917  00000+0  42650-3 0  9998
2 55583  42.9991 281.1420 0002288 258.9382 101.1228 15.71381411  1971
STARLINK-5736           
1 55584U 23020R   23056.00001157  .00015398  00000+0  12063-3 0  9994
2 55584  43.0000 279.1831 0002238 260.1634 139.5330 15.71358621  2021
STARLINK-5769           
1 55585U 23020S   23055.66819325  .00257907  00000+0  17225-2 0  9998
2 55585  42.9998 281.0835 0003320 257.6283 102.4214 15.73779153  1978
STARLINK-5767           
1 55586U 23020T   23055.61132198  .00034748  00000+0  26727-3 0  9994
2 55586  42.9997 281.5221 0002275 259.1148 100.9464 15.71358493  1964
STARLINK-5727           
1 55587U 23020U   23055.67509754  .00019950  00000+0  15525-3 0  9999
2 55587  42.9994 281.1392 0002082 262.7803  97.2828 15.71349221  1973
STARLINK-5728           
1 55588U 23020V   23055.61100706  .00036931  00000+0  28377-3 0  9995
2 55588  43.0000 281.5194 0002936 262.7075  97.3459 15.71356851  1964
STARLINK-5697           
1 55589U 23020W   23055.61122160  .00039520  00000+0  30357-3 0  9992
2 55589  42.9995 281.5205 0002131 272.3485  87.7138 15.71340006  1960
STARLINK-5762           
1 55590U 23020X   23055.61079689  .00054910  00000+0  41905-3 0  9992
2 55590  43.0002 281.5172 0002633 251.5071 108.5510 15.71374098  1967
STARLINK-5760           
1 55591U 23020Y   23055.61111444  .00069568  00000+0  52931-3 0  9995
2 55591  42.9995 281.5194 0002149 290.8920  69.1717 15.71364169  1961
STARLINK-5759           
1 55592U 23020Z   23055.67414795  .00053008  00000+0  40491-3 0  9997
2 55592  43.0002 281.1321 0002744 249.3445 110.7129 15.71364160  1975
STARLINK-5703           
1 55593U 23020AA  23055.61089261  .00065608  00000+0  49865-3 0  9991
2 55593  42.9997 281.5177 0003110 220.0890 139.9748 15.71407463  1961
STARLINK-5750           
1 55594U 23020AB  23055.67404709  .00042002  00000+0  32228-3 0  9994
2 55594  42.9997 281.1311 0001702 256.5460 103.5218 15.71344051  1973
STARLINK-5740           
1 55595U 23020AC  23055.67425457  .00039311  00000+0  30200-3 0  9995
2 55595  42.9995 281.1326 0002631 243.7081 116.3516 15.71337942  1971
STARLINK-5729           
1 55596U 23020AD  23055.67373020  .00059066  00000+0  45100-3 0  9998
2 55596  43.0001 281.1292 0002449 278.2917  81.7673 15.71336851  1979
STARLINK-5743           
1 55597U 23020AE  23055.66676814  .00064575  00000+0  44721-3 0  9994
2 55597  43.0010 281.0725 0002707 265.1038  94.9522 15.73600484  1973
STARLINK-5756           
1 55598U 23020AF  23055.66009721  .00068839  00000+0  44283-3 0  9992
2 55598  43.0010 281.0197 0003585 279.1273  80.9191 15.75278462  1974
STARLINK-5761           
1 55599U 23020AG  23056.33334491 -.00058562  00000+0 -44569-3 0  9994
2 55599  43.0008 276.7324 0002084 261.6043  41.4219 15.71384148  2079
STARLINK-5755           
1 55600U 23020AH  23055.67330705  .00043166  00000+0  33055-3 0  9997
2 55600  43.0004 281.1258 0002423 241.9544 118.1079 15.71379918  1971
STARLINK-5744           
1 55601U 23020AJ  23055.67361754  .00037213  00000+0  28570-3 0  9998
2 55601  43.0001 281.1278 0003008 264.9003  95.1521 15.71373519  1973
STARLINK-5764           
1 55602U 23020AK  23056.09110259 -.00055512  00000+0 -31713-3 0  9995
2 55602  43.0000 278.2212 0001455 346.5748  13.5084 15.77930998  2048
STARLINK-5735           
1 55603U 23020AL  23055.67352157  .00039101  00000+0  30051-3 0  9992
2 55603  43.0001 281.1267 0001816 269.8091  90.2568 15.71332268  1972
STARLINK-5748           
1 55604U 23020AM  23055.66971563  .00064220  00000+0  46851-3 0  9995
2 55604  43.0002 281.0964 0001967 260.1360  99.9286 15.72386411  1970
STARLINK-5725           
1 55605U 23020AN  23055.67320408  .00037610  00000+0  28870-3 0  9997
2 55605  42.9997 281.1231 0001839 249.0106 111.0565 15.71376190  1970
STARLINK-5723           
1 55606U 23020AP  23056.58334491  .00212097  24240-4  73147-3 0  9994
2 55606  43.0004 274.4634 0017574  29.8893 193.4965 15.88599754  2121
STARLINK-5700           
1 55607U 23020AQ  23055.67289111  .00044209  00000+0  33912-3 0  9999
2 55607  42.9998 281.1220 0001472 285.7833  74.2872 15.71331810  1979
STARLINK-5726           
1 55608U 23020AR  23056.33334491 -.00034458  00000+0 -26025-3 0  9990
2 55608  43.0012 277.1341 0001922 260.2066 241.7313 15.71368047  2079
STARLINK-5719           
1 55609U 23020AS  23055.67309628  .00034169  00000+0  26265-3 0  9994
2 55609  42.9997 281.1229 0002737 234.6676 125.3936 15.71379583  1970
STARLINK-5722           
1 55610U 23020AT  23055.67225595  .00038578  00000+0  29614-3 0  9995
2 55610  43.0006 281.1182 0002895 247.1682 112.8881 15.71362728  1977
STARLINK-5730           
1 55611U 23020AU  23055.67235970  .00068502  00000+0  52051-3 0  9995
2 55611  43.0008 281.1182 0002462 234.0917 125.9722 15.71400542  1972
STARLINK-5734           
1 55612U 23020AV  23055.67215278  .00013312  00000+0  10478-3 0  9991
2 55612  43.0002 281.1158 0001523 248.1866 111.8839 15.71360011  1975
STARLINK-5715           
1 55613U 23020AW  23055.67257320  .00073317  00000+0  55685-3 0  9996
2 55613  42.9997 281.1195 0001865 265.8863  94.1791 15.71388164  1979
STARLINK-5714           
1 55614U 23020AX  23055.66841036  .00076102  00000+0  54286-3 0  9990
2 55614  43.0004 281.0877 0003871 280.4642  79.5790 15.72848019  1971
STARLINK-5712           
1 55615U 23020AY  23055.67204460  .00073248  00000+0  55655-3 0  9995
2 55615  43.0005 281.1155 0003293 254.7140 105.3364 15.71375149  1971
STARLINK-5710           
1 55616U 23020AZ  23055.67162264  .00069606  00000+0  52904-3 0  9998
2 55616  43.0004 281.1129 0002815 236.1341 123.9259 15.71387352  1976
STARLINK-5721           
1 55617U 23020BA  23055.67183839 -.00006763  00000+0 -48188-4 0  9997
2 55617  43.0005 281.1135 0001937 279.0655  80.9994 15.71341664  1977
STARLINK-5717           
1 55618U 23020BB  23055.67152573  .00054160  00000+0  41403-3 0  9993
2 55618  43.0008 281.1120 0002146 270.1082  89.9539 15.71339606  1971
STARLINK-5720           
1 55619U 23020BC  23055.67142647  .00087602  00000+0  66454-3 0  9995
2 55619  43.0006 281.1108 0001979 247.4789 112.5869 15.71352278  1979
STARLINK-5718           
1 55620U 23020BD  23055.67120568  .00062326  00000+0  47452-3 0  9998
2 55620  42.9999 281.1091 0002847 231.3889 128.6724 15.71385237  1978
STARLINK-5709           
1 55621U 23020BE  23055.67172888  .00043449  00000+0  33255-3 0  9992
2 55621  42.9999 281.1120 0001858 272.4208  87.6447 15.71390455  1978
STARLINK-5702           
1 55622U 23020BF  23055.67131262  .00078726  00000+0  59773-3 0  9993
2 55622  43.0001 281.1099 0002219 290.1982  69.8647 15.71370156  1978
STARLINK-5698           
1 55623U 23020BG  23055.67109764  .00067226  00000+0  51131-3 0  9999
2 55623  43.0003 281.1079 0002892 225.0805 134.9829 15.71382726  1979
